<?xml version="1.0" encoding="UTF-8"?>
<kml xmlns="http://www.opengis.net/kml/2.2" xmlns:gx="http://www.google.com/kml/ext/2.2" xmlns:kml="http://www.opengis.net/kml/2.2" xmlns:atom="http://www.w3.org/2005/Atom">
<Document id="document">
	<name>Untitled map</name>
	<gx:CascadingStyle kml:id="__managed_style_256ED10A2B3E644B3E2E">
		<Style>
			<IconStyle>
				<scale>1.2</scale>
				<Icon>
					<href>https://earth.google.com/earth/document/icon?color=1976d2&amp;id=2000&amp;scale=4</href>
				</Icon>
				<hotSpot x="64" y="128" xunits="pixels" yunits="insetPixels"/>
			</IconStyle>
			<LabelStyle>
			</LabelStyle>
			<LineStyle>
				<color>ff2dc0fb</color>
				<width>4.51128</width>
			</LineStyle>
			<PolyStyle>
				<color>40ffffff</color>
			</PolyStyle>
			<BalloonStyle>
				<displayMode>hide</displayMode>
			</BalloonStyle>
		</Style>
	</gx:CascadingStyle>
	<gx:CascadingStyle kml:id="__managed_style_173C4379553E644B3E2E">
		<Style>
			<IconStyle>
				<Icon>
					<href>https://earth.google.com/earth/document/icon?color=1976d2&amp;id=2000&amp;scale=4</href>
				</Icon>
				<hotSpot x="64" y="128" xunits="pixels" yunits="insetPixels"/>
			</IconStyle>
			<LabelStyle>
			</LabelStyle>
			<LineStyle>
				<color>ff2dc0fb</color>
				<width>3.00752</width>
			</LineStyle>
			<PolyStyle>
				<color>40ffffff</color>
			</PolyStyle>
			<BalloonStyle>
				<displayMode>hide</displayMode>
			</BalloonStyle>
		</Style>
	</gx:CascadingStyle>
	<StyleMap id="__managed_style_04BFFFA0183E644B3E2E">
		<Pair>
			<key>normal</key>
			<styleUrl>#__managed_style_173C4379553E644B3E2E</styleUrl>
		</Pair>
		<Pair>
			<key>highlight</key>
			<styleUrl>#__managed_style_256ED10A2B3E644B3E2E</styleUrl>
		</Pair>
	</StyleMap>
	<Placemark id="08E603F7503E644B3E28">
		<name>Untitled polygon</name>
		<LookAt>
			<longitude>27.53794413306395</longitude>
			<latitude>37.24816646889984</latitude>
			<altitude>-0.752512908569527</altitude>
			<heading>347.0791832334323</heading>
			<tilt>0</tilt>
			<gx:fovy>35</gx:fovy>
			<range>3757.826089299051</range>
			<altitudeMode>absolute</altitudeMode>
		</LookAt>
		<styleUrl>#__managed_style_04BFFFA0183E644B3E2E</styleUrl>
		<Polygon>
			<outerBoundaryIs>
				<LinearRing>
					<coordinates>
						27.51442567402258,37.24400911830209,0 27.5105707317613,37.23814724357285,0 27.50476696122708,37.23869769820693,0 27.50275807078442,37.23738081221001,0 27.49853901733677,37.23765233426773,0 27.50052461223552,37.23372882498479,0 27.50293390912205,37.23409293944528,0 27.50662005855308,37.23251800169749,0 27.50456762300495,37.22941595690344,0 27.51043590437742,37.23013100630775,0 27.50999265121241,37.22810856043535,0 27.51105261252415,37.22771147940627,0 27.51267991280372,37.22953823256886,0 27.5144406479277,37.2306858785804,0 27.51559340481898,37.22815134967527,0 27.51834512844618,37.22743135274717,0 27.5192256748713,37.22888223778945,0 27.52208894599917,37.22706667297769,0 27.52761099519945,37.22897478297677,0 27.52422486488829,37.23351333495617,0 27.52364410689949,37.23634174501258,0 27.52068859210323,37.23939036783335,0 27.5221164730715,37.24055465893105,0 27.52809352514316,37.24240407757537,0 27.52767489311475,37.24347778030667,0 27.52898676303633,37.24381307360169,0 27.53219523799568,37.24083926940492,0 27.53355668415307,37.24533010430179,0 27.53497155936672,37.24477679401937,0 27.53707930129048,37.24514300602395,0 27.53653085267809,37.24711977403566,0 27.53417457045196,37.24687912741125,0 27.53334368360231,37.25003738119843,0 27.53564450352556,37.25170756121381,0 27.53840610763401,37.25164999444985,0 27.53734963789214,37.24986462355528,0 27.53869427703074,37.2494221568525,0 27.53983980595536,37.25034975846876,0 27.5408806454131,37.24972723609847,0 27.54027880925229,37.24855449140785,0 27.54343900244216,37.2464421727309,0 27.54468479564986,37.24825784678132,0 27.54558600554988,37.24815473842799,0 27.54603699293108,37.24466690748648,0 27.54723947911549,37.24559219667248,0 27.54903095250302,37.24400505290149,0 27.55196199094324,37.24484173116115,0 27.55193414483196,37.24618808041936,0 27.55028083919705,37.24765176863636,0 27.54816610000549,37.24886788212185,0 27.54639405448469,37.25060421213008,0 27.54464378674802,37.25140588390859,0 27.54297022213667,37.25147401191259,0 27.5422804984034,37.2513128779164,0 27.54085441233555,37.25247547159904,0 27.54139023291925,37.25332231301005,0 27.54062568325513,37.25451648617521,0 27.54157639336561,37.25655703351704,0 27.54251241144193,37.25786783222199,0 27.54154172400862,37.25840368980827,0 27.54155311377055,37.25933101000582,0 27.54226673770882,37.2598514942641,0 27.54455906701581,37.25960530650903,0 27.54498415667569,37.26037618081729,0 27.54365860424758,37.26210837689263,0 27.54446775604559,37.26325245875231,0 27.5469766572484,37.26318374320604,0 27.5493899655465,37.2641748019937,0 27.55021344323664,37.26599591804185,0 27.55187268384011,37.26805561037362,0 27.55112278868576,37.27014992677833,0 27.55184359702253,37.27141682185895,0 27.55293071240013,37.27190832652057,0 27.55349033207111,37.27095735851451,0 27.55495427764244,37.27092179590798,0 27.55509452724158,37.27333402621606,0 27.5557387872303,37.27394945971139,0 27.55625819978133,37.27626778965889,0 27.55656199966663,37.27797624849251,0 27.55860741824984,37.27755026155002,0 27.5601930358788,37.27637138933932,0 27.56262477334986,37.27585375235822,0 27.56115670876149,37.28069908157609,0 27.52249366979055,37.27389853955923,0 27.5175009339866,37.26760750757366,0 27.51842940949432,37.26593904750884,0 27.51674407959101,37.26393387029174,0 27.51691284730257,37.26178240161487,0 27.52077446009161,37.26160874387105,0 27.51888924591231,37.25945038194603,0 27.52120829425129,37.25847709058924,0 27.52452208333974,37.2592767875847,0 27.52526657437916,37.25737673894572,0 27.52323065743241,37.25533449192633,0 27.51527017585931,37.25429551393936,0 27.514521710523,37.2513914455448,0 27.52038791243167,37.24838619617533,0 27.51442567402258,37.24400911830209,0 
					</coordinates>
				</LinearRing>
			</outerBoundaryIs>
		</Polygon>
	</Placemark>
	<Placemark id="007873072C3E644BEA19">
		<name>Untitled polygon</name>
		<LookAt>
			<longitude>27.55482883742567</longitude>
			<latitude>37.2494440728046</latitude>
			<altitude>9.561861476809394</altitude>
			<heading>347.0893931315449</heading>
			<tilt>0</tilt>
			<gx:fovy>35</gx:fovy>
			<range>3747.511872163159</range>
			<altitudeMode>absolute</altitudeMode>
		</LookAt>
		<styleUrl>#__managed_style_04BFFFA0183E644B3E2E</styleUrl>
		<Polygon>
			<outerBoundaryIs>
				<LinearRing>
					<coordinates>
						27.5482547708695,37.25157280098454,0 27.54937525212859,37.25052502567304,0 27.55217123841807,37.24945735290451,0 27.55250544211347,37.2489432894273,0 27.55497384046123,37.24866741525136,0 27.55623917935929,37.24689506523011,0 27.55859637267447,37.24557851727995,0 27.55967347404424,37.24565162421313,0 27.5612525513268,37.24486284658701,0 27.56298543169513,37.24454599519832,0 27.56383056852741,37.24577433465855,0 27.56221401828898,37.24658142544141,0 27.56124656148369,37.2465342597421,0 27.55656751063098,37.24848318163259,0 27.55438952988506,37.2509149562315,0 27.55239256778958,37.25162575545416,0 27.55152568132103,37.25309891234125,0 27.54809342627619,37.25342594881057,0 27.54732707795801,37.25272977859871,0 27.5482547708695,37.25157280098454,0 
					</coordinates>
				</LinearRing>
			</outerBoundaryIs>
		</Polygon>
	</Placemark>
	<Placemark id="035A61908E3E644C32AC">
		<name>Untitled polygon</name>
		<LookAt>
			<longitude>27.559584843941</longitude>
			<latitude>37.25386111712032</latitude>
			<altitude>7.592265931977675</altitude>
			<heading>347.0918123183</heading>
			<tilt>0</tilt>
			<gx:fovy>35</gx:fovy>
			<range>1221.230491578171</range>
			<altitudeMode>absolute</altitudeMode>
		</LookAt>
		<styleUrl>#__managed_style_04BFFFA0183E644B3E2E</styleUrl>
		<Polygon>
			<outerBoundaryIs>
				<LinearRing>
					<coordinates>
						27.55975066530996,37.25392410848198,0 27.56106131473619,37.25331516930324,0 27.56164443840358,37.25379050264894,0 27.56043492950405,37.25500933416042,0 27.5592044146724,37.25543218139312,0 27.55891824575751,37.25471537591256,0 27.5591262622783,37.25417269109401,0 27.55975066530996,37.25392410848198,0 
					</coordinates>
				</LinearRing>
			</outerBoundaryIs>
		</Polygon>
	</Placemark>
</Document>
</kml>
